ENTRYSAT                
1 44429U 98067QP  20066.14952972  .00009911  00000-0  14702-3 0  9993
2 44429  51.6397 131.7826 0002684 319.1439  40.9351 15.55902722 38421
VCC C                   
1 44430U 98067QQ  20066.18349749  .00012439  00000-0  17849-3 0  9995
2 44430  51.6402 131.2670 0002997 332.3769  27.7063 15.56537394 37255
VCC B                   
1 44431U 98067QR  20065.48628169  .00009130  00000-0  13893-3 0  9993
2 44431  51.6404 135.6081 0003020 320.5640  39.5131 15.55311925 38254
ATL-1                   
1 44830U 19084G   20066.13212585  .00031550  00000-0  26180-3 0  9996
2 44830  96.9930 294.8968 0033738 272.5563  87.1838 15.69362414 14200
SMOG-P                  
1 44832U 19084J   20066.11805524  .00036493  00000-0  29768-3 0  9993
2 44832  96.9935 294.9220 0033062 271.3585  88.3891 15.69778226 14204
DUCHIFAT-3              
1 44854U 19089C   20066.18271805  .00000317  00000-0  32111-4 0  9991
2 44854  36.9693 348.6261 0009477 305.2222  54.7637 14.98986055 12792
